{"type": "FeatureCollection", "features": [ {"type": "Feature", "properties": {"norad_id": 33867, "name": "IRIDIUM 33 DEB", "group": "iridium-33-debris", "lat": -31.174208442192356, "lon": 168.24314659385936, "alt_km": 327.6367871735856, "timestamp": "2025-12-20T11:30:28.760992+00:00", "meta": {"OBJECT_NAME": "IRIDIUM 33 DEB", "OBJECT_ID": "1997-051AL", "EPOCH": "2025-12-20T00:00:24.546240", "MEAN_MOTION": 15.83320916, "ECCENTRICITY": 0.0013572, "INCLINATION": 86.3644, "RA_OF_ASC_NODE": 346.2932, "ARG_OF_PERICENTER": 95.1198, "MEAN_ANOMALY": 265.1629, "EPHEMERIS_TYPE": 0, "CLASSIFICATION_TYPE": "U", "NORAD_CAT_ID": 33867, "ELEMENT_SET_NO": 999, "REV_AT_EPOCH": 89625, "BSTAR": 0.0064207, "MEAN_MOTION_DOT": 0.01574163, "MEAN_MOTION_DDOT": 0}, "tle": {"line1": "1 33867U 97051AL  25354.00028410  .01574163  00000+0  64207-2 0  9990", "line2": "2 33867  86.3644 346.2932 0013572  95.1198 265.1629 15.83320916896259"}}, "geometry": {"type": "Point", "coordinates": [168.24314659385936, -31.174208442192356]}}, {"type": "Feature", "properties": {"norad_id": 33870, "name": "IRIDIUM 33 DEB", "group": "iridium-33-debris", "lat": -85.47801302284121, "lon": -71.76169288337738, "alt_km": 752.9869920739648, "timestamp": "2025-12-20T11:30:28.761003+00:00", "meta": {"OBJECT_NAME": "IRIDIUM 33 DEB", "OBJECT_ID": "1997-051AP", "EPOCH": "2025-12-20T03:53:26.545056", "MEAN_MOTION": 14.45886051, "ECCENTRICITY": 0.0022249, "INCLINATION": 86.3743, "RA_OF_ASC_NODE": 55.0796, "ARG_OF_PERICENTER": 154.3397, "MEAN_ANOMALY": 261.7163, "EPHEMERIS_TYPE": 0, "CLASSIFICATION_TYPE": "U", "NORAD_CAT_ID": 33870, "ELEMENT_SET_NO": 999, "REV_AT_EPOCH": 88244, "BSTAR": 0.00046885, "MEAN_MOTION_DOT": 1.69e-05, "MEAN_MOTION_DDOT": 0}, "tle": {"line1": "1 33870U 97051AP  25354.16211279  .00001690  00000+0  46885-3 0  9990", "line2": "2 33870  86.3743  55.0796 0022249 154.3397 261.7163 14.45886051882441"}}, "geometry": {"type": "Point", "coordinates": [-71.76169288337738, -85.47801302284121]}}, {"type": "Feature", "properties": {"norad_id": 33881, "name": "IRIDIUM 33 DEB", "group": "iridium-33-debris", "lat": 73.93630652334285, "lon": 116.05691624134069, "alt_km": 685.4161282021141, "timestamp": "2025-12-20T11:30:28.761014+00:00", "meta": {"OBJECT_NAME": "IRIDIUM 33 DEB", "OBJECT_ID": "1997-051BA", "EPOCH": "2025-12-18T18:38:37.341312", "MEAN_MOTION": 14.56678227, "ECCENTRICITY": 0.00614608, "INCLINATION": 86.3861, "RA_OF_ASC_NODE": 104.1184, "ARG_OF_PERICENTER": 155.2089, "MEAN_ANOMALY": 356.6087, "EPHEMERIS_TYPE": 0, "CLASSIFICATION_TYPE": "U", "NORAD_CAT_ID": 33881, "ELEMENT_SET_NO": 999, "REV_AT_EPOCH": 87588, "BSTAR": 0.0015458281, "MEAN_MOTION_DOT": 7.103e-05, "MEAN_MOTION_DDOT": 0}, "tle": {"line1": "1 33881U 97051BA  25352.77682108  .00007103  00000+0  15458-2 0  9996", "line2": "2 33881  86.3861 104.1184 0061460 155.2089 356.6087 14.56678227875882"}}, "geometry": {"type": "Point", "coordinates": [116.05691624134069, 73.93630652334285]}}, {"type": "Feature", "properties": {"norad_id": 33884, "name": "IRIDIUM 33 DEB", "group": "iridium-33-debris", "lat": -61.853839201266275, "lon": -166.8588170457174, "alt_km": 640.2953357711694, "timestamp": "2025-12-20T11:30:28.761025+00:00", "meta": {"OBJECT_NAME": "IRIDIUM 33 DEB", "OBJECT_ID": "1997-051BD", "EPOCH": "2025-12-20T00:47:16.842912", "MEAN_MOTION": 14.77561987, "ECCENTRICITY": 0.0009184, "INCLINATION": 86.369, "RA_OF_ASC_NODE": 6.526, "ARG_OF_PERICENTER": 295.3474, "MEAN_ANOMALY": 92.3856, "EPHEMERIS_TYPE": 0, "CLASSIFICATION_TYPE": "U", "NORAD_CAT_ID": 33884, "ELEMENT_SET_NO": 999, "REV_AT_EPOCH": 88955, "BSTAR": 0.00092659, "MEAN_MOTION_DOT": 6.644e-05, "MEAN_MOTION_DDOT": 0}, "tle": {"line1": "1 33884U 97051BD  25354.03283383  .00006644  00000+0  92659-3 0  9990", "line2": "2 33884  86.3690   6.5260 0009184 295.3474  92.3856 14.77561987889558"}}, "geometry": {"type": "Point", "coordinates": [-166.8588170457174, -61.853839201266275]}}, {"type": "Feature", "properties": {"norad_id": 33886, "name": "IRIDIUM 33 DEB", "group": "iridium-33-debris", "lat": 84.2269334729151, "lon": -154.76598894615506, "alt_km": 768.6387512895108, "timestamp": "2025-12-20T11:30:28.761036+00:00", "meta": {"OBJECT_NAME": "IRIDIUM 33 DEB", "OBJECT_ID": "1997-051BF", "EPOCH": "2025-12-20T04:30:59.628960", "MEAN_MOTION": 14.36060026, "ECCENTRICITY": 0.0012941, "INCLINATION": 86.3824, "RA_OF_ASC_NODE": 64.0937, "ARG_OF_PERICENTER": 214.8028, "MEAN_ANOMALY": 174.7554, "EPHEMERIS_TYPE": 0, "CLASSIFICATION_TYPE": "U", "NORAD_CAT_ID": 33886, "ELEMENT_SET_NO": 999, "REV_AT_EPOCH": 88159, "BSTAR": 0.00013723, "MEAN_MOTION_DOT": 4.19e-06, "MEAN_MOTION_DDOT": 0}, "tle": {"line1": "1 33886U 97051BF  25354.18819015  .00000419  00000+0  13723-3 0  9994", "line2": "2 33886  86.3824  64.0937 0012941 214.8028 174.7554 14.36060026881594"}}, "geometry": {"type": "Point", "coordinates": [-154.76598894615506, 84.2269334729151]}}, {"type": "Feature", "properties": {"norad_id": 33887, "name": "IRIDIUM 33 DEB", "group": "iridium-33-debris", "lat": 63.059889035111965, "lon": 7.363692283845823, "alt_km": 764.1113119268939, "timestamp": "2025-12-20T11:30:28.761046+00:00", "meta": {"OBJECT_NAME": "IRIDIUM 33 DEB", "OBJECT_ID": "1997-051BG", "EPOCH": "2025-12-20T01:28:45.668352", "MEAN_MOTION": 14.37227129, "ECCENTRICITY": 0.0005199, "INCLINATION": 86.3041, "RA_OF_ASC_NODE": 0.2367, "ARG_OF_PERICENTER": 196.9799, "MEAN_ANOMALY": 225.7634, "EPHEMERIS_TYPE": 0, "CLASSIFICATION_TYPE": "U", "NORAD_CAT_ID": 33887, "ELEMENT_SET_NO": 999, "REV_AT_EPOCH": 88270, "BSTAR": 0.00010697, "MEAN_MOTION_DOT": 3.38e-06, "MEAN_MOTION_DDOT": 0}, "tle": {"line1": "1 33887U 97051BG  25354.06163968  .00000338  00000+0  10697-3 0  9998", "line2": "2 33887  86.3041   0.2367 0005199 196.9799 225.7634 14.37227129882707"}}, "geometry": {"type": "Point", "coordinates": [7.363692283845823, 63.059889035111965]}}, {"type": "Feature", "properties": {"norad_id": 33953, "name": "IRIDIUM 33 DEB", "group": "iridium-33-debris", "lat": 63.19411015796881, "lon": 57.60992252337582, "alt_km": 689.7726217876834, "timestamp": "2025-12-20T11:30:28.761057+00:00", "meta": {"OBJECT_NAME": "IRIDIUM 33 DEB", "OBJECT_ID": "1997-051BN", "EPOCH": "2025-12-20T03:06:09.003168", "MEAN_MOTION": 14.55388304, "ECCENTRICITY": 0.0017954, "INCLINATION": 86.3841, "RA_OF_ASC_NODE": 50.5724, "ARG_OF_PERICENTER": 80.2831, "MEAN_ANOMALY": 309.4365, "EPHEMERIS_TYPE": 0, "CLASSIFICATION_TYPE": "U", "NORAD_CAT_ID": 33953, "ELEMENT_SET_NO": 999, "REV_AT_EPOCH": 88411, "BSTAR": 0.00068976, "MEAN_MOTION_DOT": 3.021e-05, "MEAN_MOTION_DDOT": 0}, "tle": {"line1": "1 33953U 97051BN  25354.12927087  .00003021  00000+0  68976-3 0  9994", "line2": "2 33953  86.3841  50.5724 0017954  80.2831 309.4365 14.55388304884119"}}, "geometry": {"type": "Point", "coordinates": [57.60992252337582, 63.19411015796881]}}, {"type": "Feature", "properties": {"norad_id": 33960, "name": "IRIDIUM 33 DEB", "group": "iridium-33-debris", "lat": -16.940128534082156, "lon": -75.27953164898838, "alt_km": 614.5397302126767, "timestamp": "2025-12-20T11:30:28.761068+00:00", "meta": {"OBJECT_NAME": "IRIDIUM 33 DEB", "OBJECT_ID": "1997-051BV", "EPOCH": "2025-12-18T21:04:17.238720", "MEAN_MOTION": 14.85489781, "ECCENTRICITY": 0.00074649, "INCLINATION": 86.254, "RA_OF_ASC_NODE": 286.6192, "ARG_OF_PERICENTER": 52.1098, "MEAN_ANOMALY": 12.0352, "EPHEMERIS_TYPE": 0, "CLASSIFICATION_TYPE": "U", "NORAD_CAT_ID": 33960, "ELEMENT_SET_NO": 999, "REV_AT_EPOCH": 88958, "BSTAR": 0.0022083229, "MEAN_MOTION_DOT": 0.0001912, "MEAN_MOTION_DDOT": 0}, "tle": {"line1": "1 33960U 97051BV  25352.87797730  .00019120  00000+0  22083-2 0  9997", "line2": "2 33960  86.2540 286.6192 0007464  52.1098  12.0352 14.85489781889584"}}, "geometry": {"type": "Point", "coordinates": [-75.27953164898838, -16.940128534082156]}}, {"type": "Feature", "properties": {"norad_id": 33966, "name": "IRIDIUM 33 DEB", "group": "iridium-33-debris", "lat": 29.2643720256079, "lon": 44.73218738528514, "alt_km": 729.6468080589966, "timestamp": "2025-12-20T11:30:28.761078+00:00", "meta": {"OBJECT_NAME": "IRIDIUM 33 DEB", "OBJECT_ID": "1997-051CB", "EPOCH": "2025-12-20T03:11:01.811904", "MEAN_MOTION": 14.49620401, "ECCENTRICITY": 0.0008251, "INCLINATION": 86.3914, "RA_OF_ASC_NODE": 42.8545, "ARG_OF_PERICENTER": 164.7802, "MEAN_ANOMALY": 215.846, "EPHEMERIS_TYPE": 0, "CLASSIFICATION_TYPE": "U", "NORAD_CAT_ID": 33966, "ELEMENT_SET_NO": 999, "REV_AT_EPOCH": 88549, "BSTAR": 0.00034833, "MEAN_MOTION_DOT": 1.358e-05, "MEAN_MOTION_DDOT": 0}, "tle": {"line1": "1 33966U 97051CB  25354.13265986  .00001358  00000+0  34833-3 0  9998", "line2": "2 33966  86.3914  42.8545 0008251 164.7802 215.8460 14.49620401885493"}}, "geometry": {"type": "Point", "coordinates": [44.73218738528514, 29.2643720256079]}}, {"type": "Feature", "properties": {"norad_id": 34071, "name": "IRIDIUM 33 DEB", "group": "iridium-33-debris", "lat": 85.65149820174514, "lon": 137.2587043677729, "alt_km": 712.8017844500619, "timestamp": "2025-12-20T11:30:28.761089+00:00", "meta": {"OBJECT_NAME": "IRIDIUM 33 DEB", "OBJECT_ID": "1997-051CE", "EPOCH": "2025-12-20T02:48:00.186912", "MEAN_MOTION": 14.49494127, "ECCENTRICITY": 0.0009945, "INCLINATION": 86.3449, "RA_OF_ASC_NODE": 14.6218, "ARG_OF_PERICENTER": 87.7011, "MEAN_ANOMALY": 272.5331, "EPHEMERIS_TYPE": 0, "CLASSIFICATION_TYPE": "U", "NORAD_CAT_ID": 34071, "ELEMENT_SET_NO": 999, "REV_AT_EPOCH": 88441, "BSTAR": 0.00040344, "MEAN_MOTION_DOT": 1.566e-05, "MEAN_MOTION_DDOT": 0}, "tle": {"line1": "1 34071U 97051CE  25354.11666883  .00001566  00000+0  40344-3 0  9990", "line2": "2 34071  86.3449  14.6218 0009945  87.7011 272.5331 14.49494127884417"}}, "geometry": {"type": "Point", "coordinates": [137.2587043677729, 85.65149820174514]}}]}